{
"type": "FeatureCollection",
"name": "archaeology_selected",
"crs": { "type": "name", "properties": { "name": "urn:ogc:def:crs:OGC:1.3:CRS84" } },
"features": [
{ "type": "Feature", "properties": { "_source_path": "C:\\Uni\\HS2\\HS2_ADS_GIS\\2025-11-24_HIS_HSTWO_CH_HERDS_Feature_Ply\\2025-11-24_HIS_HSTWO_CH_HERDS_Feature_Ply.shp", "_source_layer": "", "box_id": "box_02", "section": "HS2 Phase 1", "HS2_AssetI": null, "HS2_AssetN": null, "HS2_Suitab": "SC7", "HS2_Phase": "R1", "HS2_DocNum": "1EW02-CSJ-GI-GDD-S000-000046", "HS2_DocRev": "C01", "HS2_RevDat": "2020-08-05T00:00:00", "HS2_Layer": "HIS_CSJ_1EW02_CH_HERDS_Feature_Ply", "Contract": "1EW02", "Originator": "MHI", "CreatedAt": "2020-07-14T00:00:00", "LastEdited": "2020-07-22T00:00:00", "HS2_SupDoc": null, "FeatID": "1S18OOCBS_FTR_1", "WSIIntID": "1S18OOCBS_INT_004", "MonType": "ARCHAEOLOGICAL FEATURE", "MonDesc": "ARCHAEOLOGICAL FEATURE", "Period": "UNCERTAIN", "PeriodPhas": 0, "PeriodSubP": "N/A", "PhaseDesc": null, "BuildMater": "UNSPECIFIED", "ArchScienc": "HAND RETRIEVAL", "Evidence": "EXCAVATED FEATURE", "MaxLength": 0.0 }, "geometry": { "type": "MultiPolygon", "coordinates": [ [ [ [ -0.246492067357113, 51.524758200396498 ], [ -0.246504087463763, 51.524754060139827 ], [ -0.246513872223204, 51.524750995227393 ], [ -0.24653149863764, 51.524746851545331 ], [ -0.246542308552823, 51.524744569003836 ], [ -0.246556589127681, 51.524742902161599 ], [ -0.24657090931188, 51.524741555138917 ], [ -0.246583673277223, 51.524741166819993 ], [ -0.246598246032243, 51.524742213741874 ], [ -0.246608697512171, 51.524742882528685 ], [ -0.246614966018757, 51.524743540946581 ], [ -0.246619453039809, 51.524743892173944 ], [ -0.246627788698294, 51.524745602123488 ], [ -0.246635392673612, 51.524747033163258 ], [ -0.246645011479855, 51.524749414237832 ], [ -0.246654257548209, 51.524752229467332 ], [ -0.246654142635737, 51.524752218757385 ], [ -0.246663539585691, 51.524755534418794 ], [ -0.246662434685675, 51.524757090670001 ], [ -0.246658640150069, 51.524758526687542 ], [ -0.246657470768951, 51.524763863267481 ], [ -0.246657988192296, 51.524767693658831 ], [ -0.246654124915282, 51.524769117857915 ], [ -0.246647579522437, 51.524766998539221 ], [ -0.24663915725622, 51.524763827834533 ], [ -0.246630831213818, 51.524761492160437 ], [ -0.246620888229828, 51.524759444352384 ], [ -0.246608384339663, 51.52475816578 ], [ -0.246598232127952, 51.524758149816492 ], [ -0.246592943733632, 51.524756894566522 ], [ -0.246576745351855, 51.524757262124503 ], [ -0.246565417090413, 51.524757689887835 ], [ -0.246561135930236, 51.524759822731092 ], [ -0.24655034042417, 51.524760266549549 ], [ -0.246538643979631, 51.524761985506878 ], [ -0.24653090229134, 51.524763576537197 ], [ -0.246522209807838, 51.52476593928786 ], [ -0.24650162175981, 51.524765785305348 ], [ -0.24649556367783, 51.524768842977515 ], [ -0.246495089263162, 51.524771923866567 ], [ -0.246493883663064, 51.52477437515045 ], [ -0.246496228780456, 51.524776221269654 ], [ -0.246493421980917, 51.524777987679059 ], [ -0.246483563792235, 51.52478375190168 ], [ -0.246480403461354, 51.524785114663942 ], [ -0.246470128993338, 51.524777849009595 ], [ -0.246468733627669, 51.524775295898941 ], [ -0.246468479902206, 51.524772181644444 ], [ -0.246468923081308, 51.524770439252841 ], [ -0.246472828979672, 51.524767718097593 ], [ -0.246481341527925, 51.524763622528354 ], [ -0.246492067357113, 51.524758200396498 ] ] ], [ [ [ -0.246569085290147, 51.524943576589187 ], [ -0.246558515063775, 51.524942958179899 ], [ -0.246553212259814, 51.524942190099473 ], [ -0.246548536989011, 51.524941597757923 ], [ -0.246541699926686, 51.524940616104935 ], [ -0.246534041848246, 51.524939654551652 ], [ -0.246524501262895, 51.524937375352053 ], [ -0.246513494553814, 51.524934572461596 ], [ -0.246502371649257, 51.52493070403554 ], [ -0.246493023113262, 51.524927103127688 ], [ -0.246486299600201, 51.524924441595196 ], [ -0.246482792242615, 51.524922491775577 ], [ -0.246482943640853, 51.52492005171041 ], [ -0.246485287795066, 51.524917344977226 ], [ -0.246488342368537, 51.524915883516272 ], [ -0.246492754077772, 51.524914555645928 ], [ -0.246496738662499, 51.524913989339282 ], [ -0.246498323661451, 51.524914870904475 ], [ -0.246503265562744, 51.52491422628632 ], [ -0.246509772259987, 51.524916827924926 ], [ -0.246518654023767, 51.524920045972948 ], [ -0.246529350163504, 51.524922790266366 ], [ -0.246539801535163, 51.524925601939763 ], [ -0.246552144325041, 51.524927810620092 ], [ -0.246566699916608, 51.524929005663139 ], [ -0.246580336760603, 51.524929950472 ], [ -0.246594930860484, 51.524929242401953 ], [ -0.246609570386574, 51.524928214880589 ], [ -0.246627746033985, 51.524924860830524 ], [ -0.246641652130274, 51.524921685754926 ], [ -0.246654810030363, 51.524916710012448 ], [ -0.246667736973269, 51.524910991643459 ], [ -0.24667217888668, 51.524913530937859 ], [ -0.246674946154023, 51.524915796113021 ], [ -0.246675540705791, 51.524918444260791 ], [ -0.246674668141627, 51.524920406843023 ], [ -0.246675298977527, 51.524925638142413 ], [ -0.246666909765241, 51.524929187034473 ], [ -0.246659595653032, 51.5249321432117 ], [ -0.246647780557896, 51.524935373822849 ], [ -0.246637443681087, 51.524938062706049 ], [ -0.246625102740328, 51.524940346651469 ], [ -0.246614852990505, 51.524942193350505 ], [ -0.246604846080781, 51.524943159728224 ], [ -0.246596760852114, 51.524943485796683 ], [ -0.246590112041847, 51.524944058144584 ], [ -0.246587838241055, 51.524943845208945 ], [ -0.24658008642788, 51.524943935264382 ], [ -0.246569085290147, 51.524943576589187 ] ] ], [ [ [ -0.246716849968895, 51.524865335863389 ], [ -0.246719370445998, 51.524861828742168 ], [ -0.24672854147728, 51.524863971113895 ], [ -0.246733679743671, 51.524865082034296 ], [ -0.246739673487607, 51.524867790196566 ], [ -0.246738291636509, 51.524871715396102 ], [ -0.246735823913746, 51.524877376979333 ], [ -0.24673118548406, 51.524883631987798 ], [ -0.246728377604701, 51.524887040393779 ], [ -0.246723571646182, 51.52489240265318 ], [ -0.246717973461367, 51.524898311497822 ], [ -0.246711470396446, 51.52490349642013 ], [ -0.246706278250256, 51.524907578687575 ], [ -0.246702711574592, 51.524908749240367 ], [ -0.246698803960067, 51.524906373501025 ], [ -0.246693187051199, 51.524903875095951 ], [ -0.246689983347321, 51.524901600700289 ], [ -0.246686716743151, 51.524899988102241 ], [ -0.246690259553794, 51.524897074471554 ], [ -0.246695176004811, 51.52489228847756 ], [ -0.24670045093949, 51.524887289326792 ], [ -0.246704586665708, 51.524882863048305 ], [ -0.246709103467005, 51.524877147563757 ], [ -0.24671297280722, 51.52487181267081 ], [ -0.246716849968895, 51.524865335863389 ] ] ], [ [ [ -0.246449931390985, 51.524787907197449 ], [ -0.246455413203674, 51.524786866894743 ], [ -0.246462351566616, 51.524788287995776 ], [ -0.246464541847186, 51.524792325939899 ], [ -0.246466036921568, 51.52479506038857 ], [ -0.246464743590196, 51.524797994150369 ], [ -0.246462157815841, 51.524800123557931 ], [ -0.246459798620983, 51.524802358865507 ], [ -0.246449034455263, 51.524800035290916 ], [ -0.246443118901915, 51.524796268081744 ], [ -0.246440611368034, 51.524793283796932 ], [ -0.246447048851312, 51.52478924353737 ], [ -0.246449931390985, 51.524787907197449 ] ] ] ] } },
{ "type": "Feature", "properties": { "_source_path": "C:\\Uni\\HS2\\HS2_ADS_GIS\\2025-11-24_HIS_HSTWO_CH_HERDS_Feature_Ply\\2025-11-24_HIS_HSTWO_CH_HERDS_Feature_Ply.shp", "_source_layer": "", "box_id": "box_02", "section": "HS2 Phase 1", "HS2_AssetI": null, "HS2_AssetN": null, "HS2_Suitab": "SC7", "HS2_Phase": "R1", "HS2_DocNum": "1EW02-CSJ-GI-GDD-S000-000046", "HS2_DocRev": "C01", "HS2_RevDat": "2020-08-05T00:00:00", "HS2_Layer": "HIS_CSJ_1EW02_CH_HERDS_Feature_Ply", "Contract": "1EW02", "Originator": "MHI", "CreatedAt": "2020-07-14T00:00:00", "LastEdited": "2020-07-22T00:00:00", "HS2_SupDoc": null, "FeatID": "1S18OOCBS_FTR_2", "WSIIntID": "1S18OOCBS_INT_004", "MonType": "ARCHAEOLOGICAL FEATURE", "MonDesc": "ARCHAEOLOGICAL FEATURE", "Period": "UNCERTAIN", "PeriodPhas": 0, "PeriodSubP": "N/A", "PhaseDesc": null, "BuildMater": "UNSPECIFIED", "ArchScienc": "HAND RETRIEVAL", "Evidence": "EXCAVATED FEATURE", "MaxLength": 0.0 }, "geometry": { "type": "Polygon", "coordinates": [ [ [ -0.246496915172847, 51.524832691939068 ], [ -0.246503562811384, 51.524833613212053 ], [ -0.246489402206387, 51.524856547902893 ], [ -0.246483176799422, 51.524855217493176 ], [ -0.246496915172847, 51.524832691939068 ] ] ] } },
{ "type": "Feature", "properties": { "_source_path": "C:\\Uni\\HS2\\HS2_ADS_GIS\\2025-11-24_HIS_HSTWO_CH_HERDS_Feature_Ply\\2025-11-24_HIS_HSTWO_CH_HERDS_Feature_Ply.shp", "_source_layer": "", "box_id": "box_02", "section": "HS2 Phase 1", "HS2_AssetI": null, "HS2_AssetN": null, "HS2_Suitab": "SC7", "HS2_Phase": "R1", "HS2_DocNum": "1EW02-CSJ-GI-GDD-S000-000046", "HS2_DocRev": "C01", "HS2_RevDat": "2020-08-05T00:00:00", "HS2_Layer": "HIS_CSJ_1EW02_CH_HERDS_Feature_Ply", "Contract": "1EW02", "Originator": "MHI", "CreatedAt": "2020-07-14T00:00:00", "LastEdited": "2020-07-22T00:00:00", "HS2_SupDoc": null, "FeatID": "1S18OOCBS_FTR_3", "WSIIntID": "1S18OOCBS_INT_004", "MonType": "ARCHAEOLOGICAL FEATURE", "MonDesc": "ARCHAEOLOGICAL FEATURE", "Period": "UNCERTAIN", "PeriodPhas": 0, "PeriodSubP": "N/A", "PhaseDesc": null, "BuildMater": "UNSPECIFIED", "ArchScienc": "HAND RETRIEVAL", "Evidence": "EXCAVATED FEATURE", "MaxLength": 0.0 }, "geometry": { "type": "Polygon", "coordinates": [ [ [ -0.246522370915714, 51.524790152759785 ], [ -0.246528255024446, 51.52478006584586 ], [ -0.246532395507654, 51.52477277647305 ], [ -0.246538332241546, 51.524762933139293 ], [ -0.24654237076242, 51.524761562820053 ], [ -0.246544501992508, 51.524762747499466 ], [ -0.24654551766334, 51.524765015270845 ], [ -0.246528082135029, 51.524793347693375 ], [ -0.24652350821166, 51.524791355854006 ], [ -0.246522370915714, 51.524790152759785 ] ] ] } },
{ "type": "Feature", "properties": { "_source_path": "C:\\Uni\\HS2\\HS2_ADS_GIS\\2025-11-24_HIS_HSTWO_CH_HERDS_Feature_Ply\\2025-11-24_HIS_HSTWO_CH_HERDS_Feature_Ply.shp", "_source_layer": "", "box_id": "box_02", "section": "HS2 Phase 1", "HS2_AssetI": null, "HS2_AssetN": null, "HS2_Suitab": "SC7", "HS2_Phase": "R1", "HS2_DocNum": "1EW02-CSJ-GI-GDD-S000-000046", "HS2_DocRev": "C01", "HS2_RevDat": "2020-08-05T00:00:00", "HS2_Layer": "HIS_CSJ_1EW02_CH_HERDS_Feature_Ply", "Contract": "1EW02", "Originator": "MHI", "CreatedAt": "2020-07-14T00:00:00", "LastEdited": "2020-07-22T00:00:00", "HS2_SupDoc": null, "FeatID": "1S18OOCBS_FTR_4", "WSIIntID": "1S18OOCBS_INT_004", "MonType": "ARCHAEOLOGICAL FEATURE", "MonDesc": "ARCHAEOLOGICAL FEATURE", "Period": "UNCERTAIN", "PeriodPhas": 0, "PeriodSubP": "N/A", "PhaseDesc": null, "BuildMater": "UNSPECIFIED", "ArchScienc": "HAND RETRIEVAL", "Evidence": "EXCAVATED FEATURE", "MaxLength": 0.0 }, "geometry": { "type": "Polygon", "coordinates": [ [ [ -0.246554535604167, 51.524814223243801 ], [ -0.246583681815148, 51.524833712847503 ], [ -0.246582238431012, 51.524833910686432 ], [ -0.246579811341027, 51.524834235900876 ], [ -0.246576260663677, 51.524834802401514 ], [ -0.246573531706829, 51.524835968386647 ], [ -0.246570996998564, 51.52483759408782 ], [ -0.246569397637283, 51.524839338081613 ], [ -0.246569245094108, 51.524840869900203 ], [ -0.246568867546613, 51.524843005340621 ], [ -0.246562700948464, 51.524839656127362 ], [ -0.246538971915111, 51.52482422392081 ], [ -0.246537480708637, 51.524823039815971 ], [ -0.246508611447308, 51.524804409515077 ], [ -0.246480368942174, 51.524785713039968 ], [ -0.246483304594979, 51.524784044775394 ], [ -0.246509269955155, 51.524800814316407 ], [ -0.246540311787721, 51.524821166759196 ], [ -0.246541862922727, 51.524822066701631 ], [ -0.24656522328052, 51.524837301859222 ], [ -0.246575134402204, 51.524831810889907 ], [ -0.246551640001789, 51.524816237415884 ], [ -0.246549850406509, 51.524815278156446 ], [ -0.246519326710503, 51.524795247295067 ], [ -0.246493309664375, 51.52477802196961 ], [ -0.246495666779536, 51.524776140929745 ], [ -0.24650791788853, 51.524783849778082 ], [ -0.246523566387654, 51.52479415694841 ], [ -0.246553278965324, 51.524813725166439 ], [ -0.246554535604167, 51.524814223243801 ] ] ] } },
{ "type": "Feature", "properties": { "_source_path": "C:\\Uni\\HS2\\HS2_ADS_GIS\\2025-11-24_HIS_HSTWO_CH_HERDS_Feature_Ply\\2025-11-24_HIS_HSTWO_CH_HERDS_Feature_Ply.shp", "_source_layer": "", "box_id": "box_02", "section": "HS2 Phase 1", "HS2_AssetI": null, "HS2_AssetN": null, "HS2_Suitab": "SC7", "HS2_Phase": "R1", "HS2_DocNum": "1EW02-CSJ-GI-GDD-S000-000046", "HS2_DocRev": "C01", "HS2_RevDat": "2020-08-05T00:00:00", "HS2_Layer": "HIS_CSJ_1EW02_CH_HERDS_Feature_Ply", "Contract": "1EW02", "Originator": "MHI", "CreatedAt": "2020-07-14T00:00:00", "LastEdited": "2020-07-22T00:00:00", "HS2_SupDoc": null, "FeatID": "1S18OOCBS_FTR_5", "WSIIntID": "1S18OOCBS_INT_004", "MonType": "ARCHAEOLOGICAL FEATURE", "MonDesc": "ARCHAEOLOGICAL FEATURE", "Period": "UNCERTAIN", "PeriodPhas": 0, "PeriodSubP": "N/A", "PhaseDesc": null, "BuildMater": "UNSPECIFIED", "ArchScienc": "HAND RETRIEVAL", "Evidence": "EXCAVATED FEATURE", "MaxLength": 0.0 }, "geometry": { "type": "Polygon", "coordinates": [ [ [ -0.246487182829691, 51.524817580452037 ], [ -0.246490668593164, 51.524817202722836 ], [ -0.246497686281422, 51.524817046846103 ], [ -0.246502074406026, 51.524817008129126 ], [ -0.246505295887747, 51.524818068825439 ], [ -0.246509343255154, 51.524823710891589 ], [ -0.246508661886158, 51.524824298699194 ], [ -0.246507975744775, 51.524824485375625 ], [ -0.246509385709727, 51.524826133172127 ], [ -0.246510120260736, 51.52482577456577 ], [ -0.246510783621676, 51.524826856372528 ], [ -0.246508575255999, 51.524827567030854 ], [ -0.24650617070229, 51.524828731568995 ], [ -0.246504357175767, 51.524832185407512 ], [ -0.246500898551275, 51.524833094992033 ], [ -0.24649667133873, 51.524832584881921 ], [ -0.246493463088842, 51.524835457646851 ], [ -0.246489606520656, 51.524834530435442 ], [ -0.246485127112388, 51.524830678586341 ], [ -0.246482454552552, 51.524826398732458 ], [ -0.246481122281083, 51.524822540872592 ], [ -0.246484165599442, 51.524819120704805 ], [ -0.246487182829691, 51.524817580452037 ] ] ] } },
{ "type": "Feature", "properties": { "_source_path": "C:\\Uni\\HS2\\HS2_ADS_GIS\\2025-11-24_HIS_HSTWO_CH_HERDS_Feature_Ply\\2025-11-24_HIS_HSTWO_CH_HERDS_Feature_Ply.shp", "_source_layer": "", "box_id": "box_02", "section": "HS2 Phase 1", "HS2_AssetI": null, "HS2_AssetN": null, "HS2_Suitab": "SC7", "HS2_Phase": "R1", "HS2_DocNum": "1EW02-CSJ-GI-GDD-S000-000046", "HS2_DocRev": "C01", "HS2_RevDat": "2020-08-05T00:00:00", "HS2_Layer": "HIS_CSJ_1EW02_CH_HERDS_Feature_Ply", "Contract": "1EW02", "Originator": "MHI", "CreatedAt": "2020-07-14T00:00:00", "LastEdited": "2020-07-22T00:00:00", "HS2_SupDoc": null, "FeatID": "1S18OOCBS_FTR_6", "WSIIntID": "1S18OOCBS_INT_004", "MonType": "ARCHAEOLOGICAL FEATURE", "MonDesc": "ARCHAEOLOGICAL FEATURE", "Period": "UNCERTAIN", "PeriodPhas": 0, "PeriodSubP": "N/A", "PhaseDesc": null, "BuildMater": "UNSPECIFIED", "ArchScienc": "HAND RETRIEVAL", "Evidence": "EXCAVATED FEATURE", "MaxLength": 0.0 }, "geometry": { "type": "Polygon", "coordinates": [ [ [ -0.246560491462175, 51.52483821939137 ], [ -0.246562700948464, 51.524839656127362 ], [ -0.246568867546613, 51.524843005340621 ], [ -0.246569245094108, 51.524840869900203 ], [ -0.246569397637283, 51.524839338081613 ], [ -0.246570996998564, 51.52483759408782 ], [ -0.246573531706829, 51.524835968386647 ], [ -0.246576260663677, 51.524834802401514 ], [ -0.246579811341027, 51.524834235900876 ], [ -0.246582238431012, 51.524833910686432 ], [ -0.246583681815148, 51.524833712847503 ], [ -0.246577933052607, 51.524829843826836 ], [ -0.246596115401102, 51.52482811570291 ], [ -0.246602654621156, 51.524827581283056 ], [ -0.246603634444055, 51.524828605772193 ], [ -0.246604600448426, 51.524833967975177 ], [ -0.246607672590124, 51.524851300831862 ], [ -0.246607637110295, 51.52485556448449 ], [ -0.246603539619307, 51.524855655209208 ], [ -0.246570338052745, 51.524857300014517 ], [ -0.246563013207989, 51.524857458498261 ], [ -0.246562346833723, 51.524853265285913 ], [ -0.246560491462175, 51.52483821939137 ] ] ] } },
{ "type": "Feature", "properties": { "_source_path": "C:\\Uni\\HS2\\HS2_ADS_GIS\\2025-11-24_HIS_HSTWO_CH_HERDS_Feature_Ply\\2025-11-24_HIS_HSTWO_CH_HERDS_Feature_Ply.shp", "_source_layer": "", "box_id": "box_02", "section": "HS2 Phase 1", "HS2_AssetI": null, "HS2_AssetN": null, "HS2_Suitab": "SC7", "HS2_Phase": "R1", "HS2_DocNum": "1EW02-CSJ-GI-GDD-S000-000046", "HS2_DocRev": "C01", "HS2_RevDat": "2020-08-05T00:00:00", "HS2_Layer": "HIS_CSJ_1EW02_CH_HERDS_Feature_Ply", "Contract": "1EW02", "Originator": "MHI", "CreatedAt": "2020-07-14T00:00:00", "LastEdited": "2020-07-22T00:00:00", "HS2_SupDoc": null, "FeatID": "1S18OOCBS_FTR_7", "WSIIntID": "1S18OOCBS_INT_004", "MonType": "ARCHAEOLOGICAL FEATURE", "MonDesc": "ARCHAEOLOGICAL FEATURE", "Period": "UNCERTAIN", "PeriodPhas": 0, "PeriodSubP": "N/A", "PhaseDesc": null, "BuildMater": "UNSPECIFIED", "ArchScienc": "HAND RETRIEVAL", "Evidence": "EXCAVATED FEATURE", "MaxLength": 0.0 }, "geometry": { "type": "Polygon", "coordinates": [ [ [ -0.246562400625623, 51.524851564733126 ], [ -0.246562303152012, 51.524850799823696 ], [ -0.246563177271371, 51.524850485567384 ], [ -0.246561885214033, 51.524839125973386 ], [ -0.246562700948464, 51.524839656127362 ], [ -0.246568867546613, 51.524843005340621 ], [ -0.246569245094108, 51.524840869900203 ], [ -0.246569397637283, 51.524839338081613 ], [ -0.246570996998564, 51.52483759408782 ], [ -0.246573531706829, 51.524835968386647 ], [ -0.246576260663677, 51.524834802401514 ], [ -0.246579811341027, 51.524834235900876 ], [ -0.246583681815148, 51.524833712847503 ], [ -0.246579235703005, 51.524830720271304 ], [ -0.246594084505528, 51.524829310107457 ], [ -0.246598004991883, 51.524830900109421 ], [ -0.246602325249638, 51.524830789334501 ], [ -0.246604512298669, 51.524841666825992 ], [ -0.246602675182147, 51.52484412126082 ], [ -0.246601270105309, 51.524846886994872 ], [ -0.246602663259372, 51.524850811407596 ], [ -0.246601425276908, 51.524851028503249 ], [ -0.24660109656837, 51.524852080193668 ], [ -0.246599902357478, 51.524852996650893 ], [ -0.246599796929068, 51.524853339482867 ], [ -0.246597167605201, 51.524853450354094 ], [ -0.246596990969103, 51.524853770540012 ], [ -0.246578770518915, 51.524855139298971 ], [ -0.246574843711089, 51.524853863934865 ], [ -0.2465741732055, 51.524854356586083 ], [ -0.246570146342157, 51.524854597638743 ], [ -0.246568891005688, 51.524852977332976 ], [ -0.246565481002877, 51.524852846329459 ], [ -0.246564718868325, 51.524851258574472 ], [ -0.246562400625623, 51.524851564733126 ] ] ] } },
{ "type": "Feature", "properties": { "_source_path": "C:\\Uni\\HS2\\HS2_ADS_GIS\\2025-11-24_HIS_HSTWO_CH_HERDS_Feature_Ply\\2025-11-24_HIS_HSTWO_CH_HERDS_Feature_Ply.shp", "_source_layer": "", "box_id": "box_02", "section": "HS2 Phase 1", "HS2_AssetI": null, "HS2_AssetN": null, "HS2_Suitab": "SC7", "HS2_Phase": "R1", "HS2_DocNum": "1EW02-CSJ-GI-GDD-S000-000046", "HS2_DocRev": "C01", "HS2_RevDat": "2020-08-05T00:00:00", "HS2_Layer": "HIS_CSJ_1EW02_CH_HERDS_Feature_Ply", "Contract": "1EW02", "Originator": "MHI", "CreatedAt": "2020-07-14T00:00:00", "LastEdited": "2020-07-22T00:00:00", "HS2_SupDoc": null, "FeatID": "1S18OOCBS_FTR_8", "WSIIntID": "1S18OOCBS_INT_004", "MonType": "ARCHAEOLOGICAL FEATURE", "MonDesc": "ARCHAEOLOGICAL FEATURE", "Period": "UNCERTAIN", "PeriodPhas": 0, "PeriodSubP": "N/A", "PhaseDesc": null, "BuildMater": "UNSPECIFIED", "ArchScienc": "HAND RETRIEVAL", "Evidence": "EXCAVATED FEATURE", "MaxLength": 0.0 }, "geometry": { "type": "MultiPolygon", "coordinates": [ [ [ [ -0.246701657298693, 51.524893299874385 ], [ -0.246704003929224, 51.524890791006101 ], [ -0.246708501704871, 51.524892551495427 ], [ -0.246705901323082, 51.524895249007884 ], [ -0.246701657298693, 51.524893299874385 ] ] ], [ [ [ -0.246707328758017, 51.524887810271004 ], [ -0.246709128551977, 51.524885201507196 ], [ -0.246713807957037, 51.524886699436031 ], [ -0.246712075548447, 51.524889392836144 ], [ -0.246707328758017, 51.524887810271004 ] ] ], [ [ [ -0.246696180168382, 51.524897783437886 ], [ -0.246698569050598, 51.524895600725102 ], [ -0.24670297572073, 51.524897631422562 ], [ -0.246700282636348, 51.524899965156727 ], [ -0.246696180168382, 51.524897783437886 ] ] ], [ [ [ -0.246643125721196, 51.524761353999857 ], [ -0.24664550567285, 51.52475835284875 ], [ -0.246649376249747, 51.524759778441876 ], [ -0.246647051710747, 51.524762725567832 ], [ -0.246643125721196, 51.524761353999857 ] ] ], [ [ [ -0.246615635212494, 51.524755466741865 ], [ -0.246616984647356, 51.524752273038246 ], [ -0.246621171978672, 51.524752845494575 ], [ -0.24662016367508, 51.524756090158291 ], [ -0.246615635212494, 51.524755466741865 ] ] ], [ [ [ -0.246633825123161, 51.5247589075409 ], [ -0.246635795024347, 51.524755735700566 ], [ -0.246640011449406, 51.52475671414706 ], [ -0.246637867559448, 51.524759761989849 ], [ -0.246633825123161, 51.5247589075409 ] ] ], [ [ [ -0.246714847350192, 51.524877428548479 ], [ -0.246716657166502, 51.524874934137443 ], [ -0.246721587137057, 51.524876363872075 ], [ -0.2467199136831, 51.524878685869226 ], [ -0.246714847350192, 51.524877428548479 ] ] ], [ [ [ -0.246606791815904, 51.524754252775004 ], [ -0.246607769227743, 51.524750949199237 ], [ -0.246612067130695, 51.524751607836933 ], [ -0.246611032327339, 51.524754641682946 ], [ -0.246606791815904, 51.524754252775004 ] ] ], [ [ [ -0.246690026275617, 51.524902246994245 ], [ -0.246692873030932, 51.524900228491724 ], [ -0.246696794259932, 51.524902474944568 ], [ -0.246694078396463, 51.524904388394354 ], [ -0.246690026275617, 51.524902246994245 ] ] ], [ [ [ -0.246651551867105, 51.524764085934486 ], [ -0.246653907282417, 51.524761123083671 ], [ -0.246657093783587, 51.524762006103266 ], [ -0.246657410609675, 51.524762839935541 ], [ -0.246655230954924, 51.524765130086351 ], [ -0.246651551867105, 51.524764085934486 ] ] ], [ [ [ -0.24648945737177, 51.524770341550315 ], [ -0.24649242261974, 51.524768840986042 ], [ -0.246494707477449, 51.524770642141888 ], [ -0.246494012313994, 51.524771251324871 ], [ -0.246494358626154, 51.524771992976959 ], [ -0.246492349067804, 51.524773044719979 ], [ -0.24648945737177, 51.524770341550315 ] ] ] ] } },
{ "type": "Feature", "properties": { "_source_path": "C:\\Uni\\HS2\\HS2_ADS_GIS\\2025-11-24_HIS_HSTWO_CH_HERDS_Feature_Ply\\2025-11-24_HIS_HSTWO_CH_HERDS_Feature_Ply.shp", "_source_layer": "", "box_id": "box_02", "section": "HS2 Phase 1", "HS2_AssetI": null, "HS2_AssetN": null, "HS2_Suitab": "SC7", "HS2_Phase": "R1", "HS2_DocNum": "1EW02-CSJ-GI-GDD-S000-000046", "HS2_DocRev": "C01", "HS2_RevDat": "2020-08-05T00:00:00", "HS2_Layer": "HIS_CSJ_1EW02_CH_HERDS_Feature_Ply", "Contract": "1EW02", "Originator": "MHI", "CreatedAt": "2020-07-14T00:00:00", "LastEdited": "2020-07-22T00:00:00", "HS2_SupDoc": null, "FeatID": "1S18OOCBS_FTR_9", "WSIIntID": "1S18OOCBS_INT_004", "MonType": "ARCHAEOLOGICAL FEATURE", "MonDesc": "ARCHAEOLOGICAL FEATURE", "Period": "UNCERTAIN", "PeriodPhas": 0, "PeriodSubP": "N/A", "PhaseDesc": null, "BuildMater": "UNSPECIFIED", "ArchScienc": "HAND RETRIEVAL", "Evidence": "EXCAVATED FEATURE", "MaxLength": 0.0 }, "geometry": { "type": "MultiPolygon", "coordinates": [ [ [ [ -0.246718271029143, 51.524874914196147 ], [ -0.246719688587693, 51.524873136908987 ], [ -0.246722652781419, 51.524873727948943 ], [ -0.246721325676027, 51.524875664853802 ], [ -0.246718271029143, 51.524874914196147 ] ] ], [ [ [ -0.246559703485277, 51.524933899043518 ], [ -0.246560325835513, 51.524931845495992 ], [ -0.246562442854055, 51.524932124430691 ], [ -0.246562092232846, 51.52493412179102 ], [ -0.246559703485277, 51.524933899043518 ] ] ], [ [ [ -0.246540739452658, 51.524931469993938 ], [ -0.24654162934855, 51.524929356599898 ], [ -0.246543769404167, 51.524929973992478 ], [ -0.246542759562619, 51.524931757372009 ], [ -0.246540739452658, 51.524931469993938 ] ] ], [ [ [ -0.24656572331871, 51.524751219057791 ], [ -0.246568069422529, 51.524750862958271 ], [ -0.246568446661883, 51.524752788468625 ], [ -0.246566060066091, 51.52475292275053 ], [ -0.24656572331871, 51.524751219057791 ] ] ], [ [ [ -0.246652349268028, 51.524922190052052 ], [ -0.246654123595628, 51.524921632967761 ], [ -0.246655718930054, 51.524923333890399 ], [ -0.246654134463276, 51.524924202250936 ], [ -0.246652349268028, 51.524922190052052 ] ] ], [ [ [ -0.246627383248419, 51.524928788671517 ], [ -0.246629533035447, 51.524928327123327 ], [ -0.2466306380987, 51.524930069276991 ], [ -0.24662875154109, 51.524930583318529 ], [ -0.246627383248419, 51.524928788671517 ] ] ], [ [ [ -0.246513447730168, 51.524923970653973 ], [ -0.246515006926269, 51.524922371736977 ], [ -0.246516984342463, 51.524923019970672 ], [ -0.24651521121913, 51.524924671442626 ], [ -0.246513447730168, 51.524923970653973 ] ] ], [ [ [ -0.246594223520982, 51.524752774506986 ], [ -0.246594475507385, 51.524750680353044 ], [ -0.246596234367494, 51.524750788473995 ], [ -0.24659631199792, 51.524752745475354 ], [ -0.246594223520982, 51.524752774506986 ] ] ], [ [ [ -0.246588496976477, 51.524933263839358 ], [ -0.246590659069967, 51.524933119906571 ], [ -0.246590810126726, 51.524935004267974 ], [ -0.246588742734519, 51.524935047103291 ], [ -0.246588496976477, 51.524933263839358 ] ] ], [ [ [ -0.246544826494776, 51.524753249210804 ], [ -0.246546650535032, 51.52475319914182 ], [ -0.246547411513877, 51.524755154667716 ], [ -0.246545721570922, 51.524755316448115 ], [ -0.246544826494776, 51.524753249210804 ] ] ] ] } }
]
}
