{"type":"FeatureCollection","features":[{"type":"Feature","geometry":{"type":"MultiPoint","coordinates":[]},"id":"0","properties":{"bands":["B2","B3","B4","B8","B11","B12","SCL","VV","VH","NDVI","BSI"],"bbox":[[[31.827669842468293,30.959726757811737],[31.850666713741752,30.959726757811737],[31.850666713741752,30.979445208169377],[31.827669842468293,30.979445208169377],[31.827669842468293,30.959726757811737]]],"projection":"EPSG:4326","s1_instrument":"IW","s1_orbit":"DESCENDING","s2_cloud_pct":3.9365,"s2_date":"2018-01-04","s2_sun_azimuth":158.588641709247,"s2_sun_zenith":56.9506837039561,"scale_m":111319.49079327357,"tile_id":24}}]}